STARLINK-31892          
1 59853U 24097U   25130.42338020  .00001056  00000+0  47869-4 0  9994
2 59853  42.9998 187.2640 0000648 237.0069 123.0720 15.27581130 55532
STARLINK-31891          
1 59854U 24097V   25130.49262642  .00000028  00000+0  10522-4 0  9992
2 59854  43.0001 186.9232 0001087 274.3968  85.6759 15.27570647 55540
STARLINK-31882          
1 59855U 24097W   25130.53705032 -.00252925  00000+0 -77114-2 0  9998
2 59855  43.0007 179.4647 0001666 283.3506  76.7162 15.34252638 55639
STARLINK-31691          
1 59856U 24097X   25130.44122101  .00001090  00000+0  49142-4 0  9994
2 59856  42.9990 186.5287 0001064 270.6328  89.4402 15.27569407 55546
STARLINK-31569          
1 59857U 24097Y   25130.60796581 -.00009136  00000+0 -32253-3 0  9997
2 59857  43.0065 186.0718 0002886 285.0021  75.0511 15.27608480 55580
STARLINK-31654          
1 59858U 24098A   25130.44879319 -.00000981  00000+0 -16238-4 0  9997
2 59858  42.9995 189.3125 0001127 248.9160 111.1576 15.40701474 55471
STARLINK-31442          
1 59859U 24098B   25130.44555749  .00001252  00000+0  55015-4 0  9992
2 59859  42.9982 194.4524 0001206 252.0533 108.0187 15.27580287 55426
STARLINK-31651          
1 59860U 24098C   25129.23350749 -.00063624  00000+0 -23529-2 0  9998
2 59860  42.9982 197.3963 0009981 322.3782  37.6371 15.27098059 55289
STARLINK-31584          
1 59862U 24098E   25130.47482288 -.00004069  00000+0 -13479-3 0  9994
2 59862  43.0018 190.3761 0000855 260.0106 100.0649 15.28428039 54672
STARLINK-31950          
1 59863U 24098F   25130.87550046 -.00002622  00000+0 -85842-4 0  9994
2 59863  42.9987 188.2205 0000547  70.1803 289.9107 15.27566296 54883
STARLINK-31931          
1 59864U 24098G   25130.17422775 -.00000965  00000+0 -25532-4 0  9993
2 59864  43.0005 192.4162 0001689 258.5304 101.5358 15.27586408 55427
STARLINK-31938          
1 59865U 24098H   25130.58335648  .00029590  00000+0  10814-2 0  9999
2 59865  42.9985 189.4926 0000964 272.1934  75.1856 15.27552459  5864
STARLINK-31941          
1 59866U 24098J   25130.79704182 -.00002044  00000+0 -64768-4 0  9992
2 59866  42.9983 170.8223 0001522 277.2574  82.8105 15.27580093 55091
STARLINK-31952          
1 59867U 24098K   25130.48702137 -.00001135  00000+0 -31737-4 0  9997
2 59867  43.0005 190.4642 0000768 248.1075 111.9695 15.27572826 55471
