[
  {
    "OBJECT_NAME": "STARLINK-31892",
    "OBJECT_ID": "2024-097U",
    "EPOCH": "2025-05-10T10:09:40.049280",
    "MEAN_MOTION": 15.2758113,
    "ECCENTRICITY": 6.48e-05,
    "INCLINATION": 42.9998,
    "RA_OF_ASC_NODE": 187.264,
    "ARG_OF_PERICENTER": 237.0069,
    "MEAN_ANOMALY": 123.072,
    "EPHEMERIS_TYPE": 0,
    "CLASSIFICATION_TYPE": "U",
    "NORAD_CAT_ID": 59853,
    "ELEMENT_SET_NO": 999,
    "REV_AT_EPOCH": 5553,
    "BSTAR": 4.7869e-05,
    "MEAN_MOTION_DOT": 1.056e-05,
    "MEAN_MOTION_DDOT": 0
  },
  {
    "OBJECT_NAME": "STARLINK-31891",
    "OBJECT_ID": "2024-097V",
    "EPOCH": "2025-05-10T11:49:22.922688",
    "MEAN_MOTION": 15.27570647,
    "ECCENTRICITY": 0.0001087,
    "INCLINATION": 43.0001,
    "RA_OF_ASC_NODE": 186.9232,
    "ARG_OF_PERICENTER": 274.3968,
    "MEAN_ANOMALY": 85.6759,
    "EPHEMERIS_TYPE": 0,
    "CLASSIFICATION_TYPE": "U",
    "NORAD_CAT_ID": 59854,
    "ELEMENT_SET_NO": 999,
    "REV_AT_EPOCH": 5554,
    "BSTAR": 1.0522e-05,
    "MEAN_MOTION_DOT": 2.8e-07,
    "MEAN_MOTION_DDOT": 0
  },
  {
    "OBJECT_NAME": "STARLINK-31882",
    "OBJECT_ID": "2024-097W",
    "EPOCH": "2025-05-10T12:53:21.147648",
    "MEAN_MOTION": 15.34252638,
    "ECCENTRICITY": 0.0001666,
    "INCLINATION": 43.0007,
    "RA_OF_ASC_NODE": 179.4647,
    "ARG_OF_PERICENTER": 283.3506,
    "MEAN_ANOMALY": 76.7162,
    "EPHEMERIS_TYPE": 0,
    "CLASSIFICATION_TYPE": "U",
    "NORAD_CAT_ID": 59855,
    "ELEMENT_SET_NO": 999,
    "REV_AT_EPOCH": 5563,
    "BSTAR": -0.0077114,
    "MEAN_MOTION_DOT": -0.00252925,
    "MEAN_MOTION_DDOT": 0
  },
  {
    "OBJECT_NAME": "STARLINK-31691",
    "OBJECT_ID": "2024-097X",
    "EPOCH": "2025-05-10T10:35:21.495264",
    "MEAN_MOTION": 15.27569407,
    "ECCENTRICITY": 0.0001064,
    "INCLINATION": 42.999,
    "RA_OF_ASC_NODE": 186.5287,
    "ARG_OF_PERICENTER": 270.6328,
    "MEAN_ANOMALY": 89.4402,
    "EPHEMERIS_TYPE": 0,
    "CLASSIFICATION_TYPE": "U",
    "NORAD_CAT_ID": 59856,
    "ELEMENT_SET_NO": 999,
    "REV_AT_EPOCH": 5554,
    "BSTAR": 4.9142e-05,
    "MEAN_MOTION_DOT": 1.09e-05,
    "MEAN_MOTION_DDOT": 0
  },
  {
    "OBJECT_NAME": "STARLINK-31569",
    "OBJECT_ID": "2024-097Y",
    "EPOCH": "2025-05-10T14:35:28.245984",
    "MEAN_MOTION": 15.2760848,
    "ECCENTRICITY": 0.0002886,
    "INCLINATION": 43.0065,
    "RA_OF_ASC_NODE": 186.0718,
    "ARG_OF_PERICENTER": 285.0021,
    "MEAN_ANOMALY": 75.0511,
    "EPHEMERIS_TYPE": 0,
    "CLASSIFICATION_TYPE": "U",
    "NORAD_CAT_ID": 59857,
    "ELEMENT_SET_NO": 999,
    "REV_AT_EPOCH": 5558,
    "BSTAR": -0.00032253,
    "MEAN_MOTION_DOT": -9.136e-05,
    "MEAN_MOTION_DDOT": 0
  },
  {
    "OBJECT_NAME": "STARLINK-31654",
    "OBJECT_ID": "2024-098A",
    "EPOCH": "2025-05-10T10:46:15.731616",
    "MEAN_MOTION": 15.40701474,
    "ECCENTRICITY": 0.0001127,
    "INCLINATION": 42.9995,
    "RA_OF_ASC_NODE": 189.3125,
    "ARG_OF_PERICENTER": 248.916,
    "MEAN_ANOMALY": 111.1576,
    "EPHEMERIS_TYPE": 0,
    "CLASSIFICATION_TYPE": "U",
    "NORAD_CAT_ID": 59858,
    "ELEMENT_SET_NO": 999,
    "REV_AT_EPOCH": 5547,
    "BSTAR": -1.6238e-05,
    "MEAN_MOTION_DOT": -9.81e-06,
    "MEAN_MOTION_DDOT": 0
  },
  {
    "OBJECT_NAME": "STARLINK-31442",
    "OBJECT_ID": "2024-098B",
    "EPOCH": "2025-05-10T10:41:36.167136",
    "MEAN_MOTION": 15.27580287,
    "ECCENTRICITY": 0.0001206,
    "INCLINATION": 42.9982,
    "RA_OF_ASC_NODE": 194.4524,
    "ARG_OF_PERICENTER": 252.0533,
    "MEAN_ANOMALY": 108.0187,
    "EPHEMERIS_TYPE": 0,
    "CLASSIFICATION_TYPE": "U",
    "NORAD_CAT_ID": 59859,
    "ELEMENT_SET_NO": 999,
    "REV_AT_EPOCH": 5542,
    "BSTAR": 5.5015e-05,
    "MEAN_MOTION_DOT": 1.252e-05,
    "MEAN_MOTION_DDOT": 0
  },
  {
    "OBJECT_NAME": "STARLINK-31651",
    "OBJECT_ID": "2024-098C",
    "EPOCH": "2025-05-09T05:36:15.047136",
    "MEAN_MOTION": 15.27098059,
    "ECCENTRICITY": 0.0009981,
    "INCLINATION": 42.9982,
    "RA_OF_ASC_NODE": 197.3963,
    "ARG_OF_PERICENTER": 322.3782,
    "MEAN_ANOMALY": 37.6371,
    "EPHEMERIS_TYPE": 0,
    "CLASSIFICATION_TYPE": "U",
    "NORAD_CAT_ID": 59860,
    "ELEMENT_SET_NO": 999,
    "REV_AT_EPOCH": 5528,
    "BSTAR": -0.0023529,
    "MEAN_MOTION_DOT": -0.00063624,
    "MEAN_MOTION_DDOT": 0
  },
  {
    "OBJECT_NAME": "STARLINK-31584",
    "OBJECT_ID": "2024-098E",
    "EPOCH": "2025-05-10T11:23:44.696832",
    "MEAN_MOTION": 15.28428039,
    "ECCENTRICITY": 8.55e-05,
    "INCLINATION": 43.0018,
    "RA_OF_ASC_NODE": 190.3761,
    "ARG_OF_PERICENTER": 260.0106,
    "MEAN_ANOMALY": 100.0649,
    "EPHEMERIS_TYPE": 0,
    "CLASSIFICATION_TYPE": "U",
    "NORAD_CAT_ID": 59862,
    "ELEMENT_SET_NO": 999,
    "REV_AT_EPOCH": 5467,
    "BSTAR": -0.00013479,
    "MEAN_MOTION_DOT": -4.069e-05,
    "MEAN_MOTION_DDOT": 0
  },
  {
    "OBJECT_NAME": "STARLINK-31950",
    "OBJECT_ID": "2024-098F",
    "EPOCH": "2025-05-10T21:00:43.239744",
    "MEAN_MOTION": 15.27566296,
    "ECCENTRICITY": 5.47e-05,
    "INCLINATION": 42.9987,
    "RA_OF_ASC_NODE": 188.2205,
    "ARG_OF_PERICENTER": 70.1803,
    "MEAN_ANOMALY": 289.9107,
    "EPHEMERIS_TYPE": 0,
    "CLASSIFICATION_TYPE": "U",
    "NORAD_CAT_ID": 59863,
    "ELEMENT_SET_NO": 999,
    "REV_AT_EPOCH": 5488,
    "BSTAR": -8.5842e-05,
    "MEAN_MOTION_DOT": -2.622e-05,
    "MEAN_MOTION_DDOT": 0
  },
  {
    "OBJECT_NAME": "STARLINK-31931",
    "OBJECT_ID": "2024-098G",
    "EPOCH": "2025-05-10T04:10:53.277600",
    "MEAN_MOTION": 15.27586408,
    "ECCENTRICITY": 0.0001689,
    "INCLINATION": 43.0005,
    "RA_OF_ASC_NODE": 192.4162,
    "ARG_OF_PERICENTER": 258.5304,
    "MEAN_ANOMALY": 101.5358,
    "EPHEMERIS_TYPE": 0,
    "CLASSIFICATION_TYPE": "U",
    "NORAD_CAT_ID": 59864,
    "ELEMENT_SET_NO": 999,
    "REV_AT_EPOCH": 5542,
    "BSTAR": -2.5532e-05,
    "MEAN_MOTION_DOT": -9.65e-06,
    "MEAN_MOTION_DDOT": 0
  },
  {
    "OBJECT_NAME": "STARLINK-31938",
    "OBJECT_ID": "2024-098H",
    "EPOCH": "2025-05-10T14:00:01.999872",
    "MEAN_MOTION": 15.27552459,
    "ECCENTRICITY": 9.64e-05,
    "INCLINATION": 42.9985,
    "RA_OF_ASC_NODE": 189.4926,
    "ARG_OF_PERICENTER": 272.1934,
    "MEAN_ANOMALY": 75.1856,
    "EPHEMERIS_TYPE": 0,
    "CLASSIFICATION_TYPE": "U",
    "NORAD_CAT_ID": 59865,
    "ELEMENT_SET_NO": 999,
    "REV_AT_EPOCH": 586,
    "BSTAR": 0.0010814,
    "MEAN_MOTION_DOT": 0.0002959,
    "MEAN_MOTION_DDOT": 0
  },
  {
    "OBJECT_NAME": "STARLINK-31941",
    "OBJECT_ID": "2024-098J",
    "EPOCH": "2025-05-10T19:07:44.413248",
    "MEAN_MOTION": 15.27580093,
    "ECCENTRICITY": 0.0001522,
    "INCLINATION": 42.9983,
    "RA_OF_ASC_NODE": 170.8223,
    "ARG_OF_PERICENTER": 277.2574,
    "MEAN_ANOMALY": 82.8105,
    "EPHEMERIS_TYPE": 0,
    "CLASSIFICATION_TYPE": "U",
    "NORAD_CAT_ID": 59866,
    "ELEMENT_SET_NO": 999,
    "REV_AT_EPOCH": 5509,
    "BSTAR": -6.4768e-05,
    "MEAN_MOTION_DOT": -2.044e-05,
    "MEAN_MOTION_DDOT": 0
  },
  {
    "OBJECT_NAME": "STARLINK-31952",
    "OBJECT_ID": "2024-098K",
    "EPOCH": "2025-05-10T11:41:18.646368",
    "MEAN_MOTION": 15.27572826,
    "ECCENTRICITY": 7.68e-05,
    "INCLINATION": 43.0005,
    "RA_OF_ASC_NODE": 190.4642,
    "ARG_OF_PERICENTER": 248.1075,
    "MEAN_ANOMALY": 111.9695,
    "EPHEMERIS_TYPE": 0,
    "CLASSIFICATION_TYPE": "U",
    "NORAD_CAT_ID": 59867,
    "ELEMENT_SET_NO": 999,
    "REV_AT_EPOCH": 5547,
    "BSTAR": -3.1737e-05,
    "MEAN_MOTION_DOT": -1.135e-05,
    "MEAN_MOTION_DDOT": 0
  }
]